[{"OBJECT_NAME":"STARLINK-4062","OBJECT_ID":"2022-086V","EPOCH":"2026-03-09T16:03:34.368192","MEAN_MOTION":15.08839954,"ECCENTRICITY":0.0001529,"INCLINATION":53.2174,"RA_OF_ASC_NODE":194.215,"ARG_OF_PERICENTER":64.6079,"MEAN_ANOMALY":295.5071,"EPHEMERIS_TYPE":0,"CLASSIFICATION_TYPE":"U","NORAD_CAT_ID":53261,"ELEMENT_SET_NO":999,"REV_AT_EPOCH":20106,"BSTAR":1.6376921e-5,"MEAN_MOTION_DOT":-2.7e-7,"MEAN_MOTION_DDOT":0},{"OBJECT_NAME":"CZ-6A DEB","OBJECT_ID":"2024-140BH","EPOCH":"2026-03-09T12:42:23.031936","MEAN_MOTION":15.05550408,"ECCENTRICITY":0.0121353,"INCLINATION":89.148,"RA_OF_ASC_NODE":290.4372,"ARG_OF_PERICENTER":169.3672,"MEAN_ANOMALY":191.0177,"EPHEMERIS_TYPE":0,"CLASSIFICATION_TYPE":"U","NORAD_CAT_ID":60656,"ELEMENT_SET_NO":999,"REV_AT_EPOCH":8464,"BSTAR":0.002338,"MEAN_MOTION_DOT":0.00039913,"MEAN_MOTION_DDOT":0}]
